NORAD_CAT_ID,OBJECT_NAME,OBJECT_TYPE,EPOCH,MEAN_MOTION,ECCENTRICITY,INCLINATION,RA_OF_ASC_NODE,ARG_OF_PERICENTER,MEAN_ANOMALY,BSTAR,MEAN_MOTION_DOT,MEAN_MOTION_DDOT,TLE_LINE0,TLE_LINE1,TLE_LINE2,SEMIMAJOR_AXIS,PERIOD,APOGEE,PERIGEE,DECAYED
50169.0,STARLINK-3301,PAYLOAD,2023-10-21 00:30:27,15.08824021,0.0001466,53.2168,197.7019,98.2266,261.8892,0.00047524,7.28e-05,0.0,0 STARLINK-3301,1 50169U 21125P   23294.02114994  .00007280  00000-0  47524-3 0  9994,2 50169  53.2168 197.7019 0001466  98.2266 261.8892 15.08824021102079,6917.929,95.439,540.808,538.78,0.0
50169.0,STARLINK-3301,PAYLOAD,2023-10-21 17:59:41,15.08852661,0.0001254,53.2166,194.4291,83.1329,276.9805,0.00093511,0.00014631,0.0,0 STARLINK-3301,1 50169U 21125P   23294.74978756  .00014631  00000-0  93511-3 0  9992,2 50169  53.2166 194.4291 0001254  83.1329 276.9805 15.08852661102185,6917.842,95.437,540.574,538.839,0.0
50169.0,STARLINK-3301,PAYLOAD,2023-10-21 22:45:50,15.0887164,0.0001372,53.2173,193.5406,80.6069,279.5079,0.0013505,0.00021289,0.0,0 STARLINK-3301,1 50169U 21125P   23294.94850271  .00021289  00000-0  13505-2 0  9996,2 50169  53.2173 193.5406 0001372  80.6069 279.5079 15.08871640105302,6917.784,95.436,540.598,538.7,0.0
50169.0,STARLINK-3301,PAYLOAD,2023-10-22 00:21:13,15.08880589,0.0001393,53.2168,193.2443,90.8237,269.2915,0.0012964,0.00020427,0.0,0 STARLINK-3301,1 50169U 21125P   23295.01473946  .00020427  00000-0  12964-2 0  9996,2 50169  53.2168 193.2443 0001393  90.8237 269.2915 15.08880589102222,6917.756,95.435,540.585,538.658,0.0
50169.0,STARLINK-3301,PAYLOAD,2023-10-22 09:53:32,15.08864004,0.0001499,53.2168,191.4595,85.4662,274.6502,0.00022131,3.238e-05,0.0,0 STARLINK-3301,1 50169U 21125P   23295.41217733  .00003238  00000-0  22131-3 0  9999,2 50169  53.2168 191.4595 0001499  85.4662 274.6502 15.08864004102281,6917.807,95.436,540.709,538.635,0.0
50169.0,STARLINK-3301,PAYLOAD,2023-10-22 21:01:15,15.08811262,0.0001472,53.2165,189.3793,80.4144,279.7014,0.00073146,0.00011363,0.0,0 STARLINK-3301,1 50169U 21125P   23295.87587127  .00011363  00000-0  73146-3 0  9996,2 50169  53.2165 189.3793 0001472  80.4144 279.7014 15.08811262102355,6917.968,95.439,540.852,538.815,0.0
50169.0,STARLINK-3301,PAYLOAD,2023-10-22 22:36:38,15.0880897,0.0001462,53.2166,189.0821,77.4821,282.6335,0.0011109,0.00017421,0.0,0 STARLINK-3301,1 50169U 21125P   23295.94211305  .00017421  00000-0  11109-2 0  9997,2 50169  53.2166 189.0821 0001462  77.4821 282.6335 15.08808970105457,6917.975,95.44,540.852,538.829,0.0
50169.0,STARLINK-3301,PAYLOAD,2023-10-23 22:27:26,15.08844746,0.0001424,53.2163,184.6215,76.7593,283.3558,0.0015132,0.0002388,0.0,0 STARLINK-3301,1 50169U 21125P   23296.93572413  .00023880  00000-0  15132-2 0  9993,2 50169  53.2163 184.6215 0001424  76.7593 283.3558 15.08844746105601,6917.866,95.437,540.716,538.746,0.0
50169.0,STARLINK-3301,PAYLOAD,2023-10-24 01:38:12,15.08849208,0.0001404,53.2161,184.0266,74.4855,285.6292,0.0015014,0.00023694,0.0,0 STARLINK-3301,1 50169U 21125P   23297.06820375  .00023694  00000-0  15014-2 0  9993,2 50169  53.2161 184.0266 0001404  74.4855 285.6292 15.08849208102530,6917.852,95.437,540.689,538.746,0.0
50169.0,STARLINK-3301,PAYLOAD,2023-10-24 09:35:08,15.088536,0.000142,53.2164,182.5398,77.3948,282.7203,0.00099079,0.00015521,0.0,0 STARLINK-3301,1 50169U 21125P   23297.39940178  .00015521  00000-0  99079-3 0  9997,2 50169  53.2164 182.5398 0001420  77.3948 282.7203 15.08853600105674,6917.839,95.437,540.686,538.721,0.0
50169.0,STARLINK-3301,PAYLOAD,2023-10-25 20:33:37,15.08831284,0.0001446,53.2163,175.9964,67.6906,292.4239,0.00012288,1.668e-05,0.0,0 STARLINK-3301,1 50169U 21125P   23298.85668379  .00001668  00000-0  12288-3 0  9993,2 50169  53.2163 175.9964 0001446  67.6906 292.4239 15.08831284102805,6917.907,95.438,540.772,538.772,0.0
50169.0,STARLINK-3301,PAYLOAD,2023-10-25 22:09:00,15.08832499,0.0001168,53.2163,175.6981,91.2569,268.8557,0.00021302,3.103e-05,0.0,0 STARLINK-3301,1 50169U 21125P   23298.92292306  .00003103  00000-0  21302-3 0  9997,2 50169  53.2163 175.6981 0001168  91.2569 268.8557 15.08832499105903,6917.903,95.438,540.576,538.96,0.0
50169.0,STARLINK-3301,PAYLOAD,2023-10-26 20:24:24,15.08855725,0.0001414,53.2166,171.5352,63.6615,296.4523,0.0012516,0.00019696,0.0,0 STARLINK-3301,1 50169U 21125P   23299.85028773  .00019696  00000-0  12516-2 0  9995,2 50169  53.2166 171.5352 0001414  63.6615 296.4523 15.08855725106045,6917.832,95.437,540.676,538.719,0.0
50169.0,STARLINK-3301,PAYLOAD,2023-10-27 01:10:33,15.08867001,0.0001285,53.2165,170.6413,103.4705,256.643,0.0013629,0.00021485,0.0,0 STARLINK-3301,1 50169U 21125P   23300.04900188  .00021485  00000-0  13629-2 0  9993,2 50169  53.2165 170.6413 0001285 103.4705 256.6430 15.08867001102985,6917.798,95.436,540.552,538.774,0.0
50169.0,STARLINK-3301,PAYLOAD,2023-10-27 09:07:29,15.08853151,0.0001942,53.2168,169.1553,125.2617,234.8557,0.00084537,0.00013197,0.0,0 STARLINK-3301,1 50169U 21125P   23300.38020351  .00013197  00000-0  84537-3 0  9993,2 50169  53.2168 169.1553 0001942 125.2617 234.8557 15.08853151103036,6917.84,95.437,541.049,538.362,0.0
50169.0,STARLINK-3301,PAYLOAD,2023-10-27 21:50:34,15.08868271,0.0001927,53.2162,166.7767,92.9526,267.1687,0.00082635,0.00012898,0.0,0 STARLINK-3301,1 50169U 21125P   23300.91011671  .00012898  00000-0  82635-3 0  9991,2 50169  53.2162 166.7767 0001927  92.9526 267.1687 15.08868271106206,6917.794,95.436,540.992,538.326,0.0
50169.0,STARLINK-3301,PAYLOAD,2023-10-28 01:01:20,15.08859311,0.0001411,53.2173,166.1842,86.9263,273.189,0.00047424,7.272e-05,0.0,0 STARLINK-3301,1 50169U 21125P   23301.04259610  .00007272  00000-0  47424-3 0  9990,2 50169  53.2173 166.1842 0001411  86.9263 273.1890 15.08859311103132,6917.821,95.436,540.662,538.71,0.0
50169.0,STARLINK-3301,PAYLOAD,2023-10-28 21:41:21,15.08851165,0.0001197,53.2162,162.3174,92.8024,267.3105,0.00031191,4.681e-05,0.0,0 STARLINK-3301,1 50169U 21125P   23301.90371607  .00004681  00000-0  31191-3 0  9991,2 50169  53.2162 162.3174 0001197  92.8024 267.3105 15.08851165103265,6917.846,95.437,540.539,538.883,0.0
50169.0,STARLINK-3301,PAYLOAD,2023-10-29 07:13:39,15.08852867,0.0001214,53.2158,160.5326,91.3991,268.714,0.00031804,4.779e-05,0.0,0 STARLINK-3301,1 50169U 21125P   23302.30115395  .00004779  00000-0  31804-3 0  9995,2 50169  53.2158 160.5326 0001214  91.3991 268.7140 15.08852867106410,6917.841,95.437,540.546,538.866,0.0
50169.0,STARLINK-3301,PAYLOAD,2023-10-29 21:32:08,15.08846712,0.0001614,53.216,157.8589,91.5139,268.6038,0.00021292,3.103e-05,0.0,0 STARLINK-3301,1 50169U 21125P   23302.89731516  .00003103  00000-0  21292-3 0  9998,2 50169  53.2160 157.8589 0001614  91.5139 268.6038 15.08846712103417,6917.86,95.437,540.841,538.608,0.0
50169.0,STARLINK-3301,PAYLOAD,2023-10-30 21:22:55,15.08840112,0.0001332,53.2157,153.3956,85.5757,274.5387,9.776e-05,1.268e-05,0.0,0 STARLINK-3301,1 50169U 21125P   23303.89091853  .00001268  00000-0  97760-4 0  9996,2 50169  53.2157 153.3956 0001332  85.5757 274.5387 15.08840112103565,6917.88,95.438,540.667,538.824,0.0
50169.0,STARLINK-3301,PAYLOAD,2023-10-31 06:55:14,15.08840198,0.0001365,53.2155,151.613,89.6418,270.473,2.7866e-05,1.56e-06,0.0,0 STARLINK-3301,1 50169U 21125P   23304.28835866  .00000156  00000-0  27866-4 0  9995,2 50169  53.2155 151.6130 0001365  89.6418 270.4730 15.08840198106714,6917.88,95.438,540.689,538.8,0.0
50169.0,STARLINK-3301,PAYLOAD,2023-10-31 21:13:42,15.08849071,0.000133,53.2154,148.9363,83.6497,276.4647,0.00033477,5.045e-05,0.0,0 STARLINK-3301,1 50169U 21125P   23304.88451653  .00005045  00000-0  33477-3 0  9995,2 50169  53.2154 148.9363 0001330  83.6497 276.4647 15.08849071106805,6917.853,95.437,540.638,538.798,0.0
50169.0,STARLINK-3301,PAYLOAD,2023-11-01 13:07:33,15.08843505,0.0001336,53.2154,145.9628,82.9639,277.1505,0.0001862,2.677e-05,0.0,0 STARLINK-3301,1 50169U 21125P   23305.54691842  .00002677  00000-0  18620-3 0  9996,2 50169  53.2154 145.9628 0001336  82.9639 277.1505 15.08843505103817,6917.87,95.437,540.659,538.81,0.0
50169.0,STARLINK-3301,PAYLOAD,2023-11-01 21:04:29,15.08847181,0.0001483,53.2157,144.476,74.9989,285.1167,0.00024407,3.599e-05,0.0,0 STARLINK-3301,1 50169U 21125P   23305.87811751  .00003599  00000-0  24407-3 0  9999,2 50169  53.2157 144.4760 0001483  74.9989 285.1167 15.08847181106958,6917.858,95.437,540.749,538.698,0.0
50169.0,STARLINK-3301,PAYLOAD,2023-11-02 12:58:20,15.0884151,0.0001514,53.215,141.5029,87.6022,272.5144,5.0979e-05,5.23e-06,0.0,0 STARLINK-3301,1 50169U 21125P   23306.54051799  .00000523  00000-0  50979-4 0  9990,2 50169  53.2150 141.5029 0001514  87.6022 272.5144 15.08841510107058,6917.876,95.437,540.788,538.693,0.0
50169.0,STARLINK-3301,PAYLOAD,2023-11-02 19:19:53,15.08844688,0.0001473,53.2157,140.3132,87.1278,272.9883,2.7349e-05,1.47e-06,0.0,0 STARLINK-3301,1 50169U 21125P   23306.80547694  .00000147  00000-0  27349-4 0  9990,2 50169  53.2157 140.3132 0001473  87.1278 272.9883 15.08844688104004,6917.866,95.437,540.75,538.712,0.0
50169.0,STARLINK-3301,PAYLOAD,2023-11-03 03:16:49,15.08836942,0.0001566,53.2156,138.8268,78.8366,281.2802,-2.5221e-05,-6.89e-06,0.0,0 STARLINK-3301,1 50169U 21125P   23307.13668088 -.00000689  00000-0 -25221-4 0  9998,2 50169  53.2156 138.8268 0001566  78.8366 281.2802 15.08836942104056,6917.89,95.438,540.838,538.671,0.0
50169.0,STARLINK-3301,PAYLOAD,2023-11-03 12:49:07,15.08839929,0.00015,53.2149,137.0423,86.1882,273.9282,8.0162e-05,9.88e-06,0.0,0 STARLINK-3301,1 50169U 21125P   23307.53412004  .00000988  00000-0  80162-4 0  9992,2 50169  53.2149 137.0423 0001500  86.1882 273.9282 15.08839929107203,6917.881,95.438,540.783,538.708,0.0
50169.0,STARLINK-3301,PAYLOAD,2023-11-03 22:21:26,15.08844491,0.0001473,53.2157,135.2572,92.3032,267.8129,0.00018389,2.64e-05,0.0,0 STARLINK-3301,1 50169U 21125P   23307.93155811  .00002640  00000-0  18389-3 0  9994,2 50169  53.2157 135.2572 0001473  92.3032 267.8129 15.08844491107260,6917.867,95.437,540.751,538.713,0.0
